CCSDS_OEM_VERS = 2.0  
CREATION_DATE  = 2026-02-27T09:30:05
ORIGINATOR     = ESOC/OPS-GFA                            
 
 



META_START
OBJECT_NAME          = LISA                                    
OBJECT_ID            = -1000                                   
CENTER_NAME          = SUN                     
REF_FRAME            = EME2000 
TIME_SYSTEM          = TCB
START_TIME           = 2036-12-23T00:00:30.346418            
STOP_TIME            = 2047-09-07T00:30:56.515717            
INTERPOLATION        = HERMITE                                 
INTERPOLATION_DEGREE = 7                                       
META_STOP

2045-04-10T06:19:34.255465    -1.50176363731594890e+08    9.65860303243264183e+06    5.54447810395199526e+06   -2.19806728829809961e+00   -2.71091421860977952e+01   -1.17147484650039413e+01    5.83625093933109368e-06   -3.75412638696856638e-07   -2.15497788605848773e-07
2045-04-11T02:35:28.040308    -1.50321184969124377e+08    7.67995771622135863e+06    4.68929888679505140e+06   -1.77208458166406757e+00   -2.71337250942652446e+01   -1.17292575767321665e+01    5.84170320396458099e-06   -2.98507692445276839e-07   -1.82257525629856599e-07
2045-04-11T22:51:21.825151    -1.50434915662465155e+08    5.69972370038213581e+06    3.83314966796321515e+06   -1.34574754000346486e+00   -2.71526953458457427e+01   -1.17413403606131261e+01    5.84596475759998602e-06   -2.21546347132540518e-07   -1.48982037777594489e-07
2045-04-12T19:07:15.609993    -1.50517533139010638e+08    3.71831058370787837e+06    2.97620754422070179e+06   -9.19143058238444777e-01   -2.71660493814441004e+01   -1.17509944869010745e+01    5.84903486885764298e-06   -1.44543822361247816e-07   -1.15677906461447762e-07
2045-04-13T15:23:09.394836    -1.50569021087569326e+08    1.73612817820744962e+06    2.11864976238718256e+06   -4.92358076322681359e-01   -2.71737847521685403e+01   -1.17582181061409496e+01    5.85091303579833376e-06   -6.75153421586920620e-08   -8.23517170937861755e-08
2045-04-14T11:39:03.179678    -1.50589369547276378e+08   -2.46413567671835423e+05    1.26065368600269686e+06   -6.54795622961001911e-02   -2.71759001198660890e+01   -1.17630098494242361e+01    5.85159899081257306e-06    9.52386743150189037e-09   -4.90100580889609443e-08
2045-04-15T07:54:56.964521    -1.50578574892438710e+08   -2.22890464493639022e+06    4.02396762338932604e+05    3.61405504845788705e-01   -2.71723952571795309e+01   -1.17653688285692670e+01    5.85109270080864114e-06    8.65585808339353822e-08   -1.56595197896433365e-08
2045-04-16T04:10:50.749364    -1.50536639818474084e+08   -4.21093506071149558e+06   -4.55943510914282873e+05    7.88210152126602281e-01   -2.71632710474203627e+01   -1.17652946362204904e+01    5.84939436275034831e-06    1.63573575500175681e-07    1.76933066811579392e-08
2045-04-17T00:26:44.534207    -1.50463573334107310e+08   -6.19209491733831540e+06   -1.31418961995827034e+06    1.21484742906648968e+00   -2.71485294842523537e+01   -1.17627873458612360e+01    5.84650439449557304e-06    2.40553634542106506e-07    5.10418306430367749e-08
2045-04-17T20:42:38.319049    -1.50359390764984399e+08   -8.17197449556119740e+06   -2.17216407086168975e+06    1.64123042332085234e+00   -2.71281736711802068e+01   -1.17578475117345018e+01    5.84242342095713283e-06    3.17483549441518959e-07    8.43794631565911557e-08
2045-04-18T16:58:32.103891    -1.50224113773866981e+08   -1.01501643434638493e+07   -3.02968942787477374e+06    2.06727227513904843e+00   -2.71022078208377835e+01   -1.17504761686663013e+01    5.83715225558488886e-06    3.94348122836624975e-07    1.17699618397595286e-07
2045-04-19T13:14:25.888734    -1.50057770402568638e+08   -1.21262553728130944e+07   -3.88658835475258529e+06    2.49288619030167613e+00   -2.70706372540705082e+01   -1.17406748317860909e+01    5.83069187720334381e-06    4.71132171376363259e-07    1.50995715102668873e-07
2045-04-20T09:30:19.673578    -1.49860395140795141e+08   -1.40998389644687586e+07   -4.74268365975850075e+06    2.91798545119511932e+00   -2.70334683988063951e+01   -1.17284454961388125e+01    5.82304340205309169e-06    5.47820528664533029e-07    1.84261178097387291e-07
2045-04-21T05:42:02.990031    -1.49632865754046768e+08   -1.60637466396591440e+07   -5.59486436059107073e+06    3.34102716743894179e+00   -2.69908651481937092e+01   -1.17138450965040839e+01    5.81424107756595183e-06    6.24135326529779313e-07    2.17375415907444127e-07
2045-04-22T01:53:46.306484    -1.49374604146884501e+08   -1.80243553368162438e+07   -6.44589608524286468e+06    3.76338614021083862e+00   -2.69427180153144548e+01   -1.16968387225997894e+01    5.80426209004001381e-06    7.00325037765220650e-07    2.50446191878768224e-07
2045-04-22T22:05:29.622937    -1.49085663088146776e+08   -1.99812623585089333e+07   -7.29560403932457417e+06    4.18497689383692428e+00   -2.68890366376248906e+01   -1.16774297700490095e+01    5.79310843500552928e-06    7.76374720065544341e-07    2.83467019841398242e-07
2045-04-23T18:17:12.939392    -1.48766101506595105e+08   -2.19340657174941823e+07   -8.14381367993201315e+06    4.60571410350561550e+00   -2.68298317384552369e+01   -1.16556221058851950e+01    5.78078227104762564e-06    8.52269445505810694e-07    3.16431418366594474e-07
2045-04-24T14:28:56.255845    -1.48415984522459656e+08   -2.38823642408874482e+07   -8.99035076045193337e+06    5.02551260792980692e+00   -2.67651151257245772e+01   -1.16314200681111224e+01    5.76728594119074712e-06    9.27994306997771926e-07    3.49332913366018339e-07
2045-04-25T10:40:39.572298    -1.48035383457468361e+08   -2.58257576622265875e+07   -9.83504137032258511e+06    5.44428742340282046e+00   -2.66948996902155820e+01   -1.16048284650800895e+01    5.75262198996668209e-06    1.00353442394405786e-06    3.82165040382872386e-07
2045-04-26T06:52:22.888752    -1.47624375827827483e+08   -2.77638467040635012e+07   -1.06777119708488937e+07    5.86195375893856863e+00   -2.66191994034672135e+01   -1.15758525747216741e+01    5.73679317617377441e-06    1.07887494709272959e-06    4.14921346575997516e-07
2045-04-27T03:04:06.205206    -1.47183045324620694e+08   -2.96962331536993757e+07   -1.15181894281638786e+07    6.27842703218234810e+00   -2.65380293153436249e+01   -1.15444981436344403e+01    5.71980248131461415e-06    1.15400106259032407e-06    4.47595392396214138e-07
2045-04-27T23:15:49.521659    -1.46711481786095202e+08   -3.16225199346789196e+07   -1.23563010444280282e+07    6.69362288577866593e+00   -2.64514055513374053e+01   -1.15107713860679191e+01    5.70165311373418999e-06    1.22889799523664410e-06    4.80180752956164703e-07
2045-04-28T19:27:32.838113    -1.46209781166301966e+08   -3.35423111766593382e+07   -1.31918745883582737e+07    7.10745720388252789e+00   -2.63593453096654073e+01   -1.14746789828161813e+01    5.68234850842287611e-06    1.30355101093588634e-06    5.12671019091578861e-07
2045-04-29T15:39:16.154567    -1.45678045504557729e+08   -3.54552122862696797e+07   -1.40247383261782471e+07    7.51984612850055889e+00   -2.62618668582152566e+01   -1.14362280800453995e+01    5.66189232253396094e-06    1.37794541835246055e-06    5.45059798117166726e-07
2045-04-30T11:50:59.471020    -1.45116382900197148e+08   -3.73608300215761214e+07   -1.48547210540815350e+07    7.93070607534844374e+00   -2.61589895314008274e+01   -1.13954262880776618e+01    5.64028842657501103e-06    1.45206656976238704e-06    5.77340714273576345e-07
2045-05-01T08:02:42.787474    -1.44524907497081757e+08   -3.92587725727688074e+07   -1.56816521332995892e+07    8.33995374891099672e+00   -2.60507337269847667e+01   -1.13522816801534567e+01    5.61754089125180362e-06    1.52589986110293261e-06    6.09507408866690177e-07
2045-05-02T04:14:26.103927    -1.43903739482334465e+08   -4.11486496516859233e+07   -1.65053615288658459e+07    8.74750615639136697e+00   -2.59371209029263490e+01   -1.13068027911951123e+01    5.59365397008569772e-06    1.59943073123089216e-06    6.41553540102769503e-07
2045-05-03T00:26:09.420381    -1.43253005103766292e+08   -4.30300725927907526e+07   -1.73256798531680740e+07    9.15328062023572286e+00   -2.58181735743127376e+01   -1.12589986165935514e+01    5.56863207763791293e-06    1.67264466037122287e-06    6.73472782612950881e-07
2045-05-03T20:37:52.736835    -1.42572836710463881e+08   -4.49026544682167545e+07   -1.81424384153800905e+07    9.55719478891985652e+00   -2.56939153104319438e+01   -1.12088786110407117e+01    5.54247976338926526e-06    1.74552716776243154e-06    7.05258826669471846e-07
2045-05-04T16:48:23.624334    -1.41864093902430683e+08   -4.67641584570742473e+07   -1.89546611599097513e+07    9.95876720402773152e+00   -2.55645024062748405e+01   -1.11565060581886488e+01    5.51523003342477701e-06    1.81799183030805340e-06    7.36873962500425774e-07
2045-05-05T12:58:54.511834    -1.41126257405528426e+08   -4.86160722572046146e+07   -1.97629967800169848e+07    1.03583198118378608e+01   -2.54298392963822728e+01   -1.11018425140448951e+01    5.48686223626943668e-06    1.89009705747329505e-06    7.68343661079415270e-07
2045-05-06T09:09:25.399333    -1.40359476882417470e+08   -5.04580155237521008e+07   -2.05672792772577219e+07    1.07557716007905100e+01   -2.52899526031702138e+01   -1.10448987671152867e+01    5.45738175685041169e-06    1.96182863807759957e-06    7.99661721676091003e-07
2045-05-07T05:19:56.286834    -1.39563907825430930e+08   -5.22896098437236920e+07   -2.13673434365080893e+07    1.11510419561453418e+01   -2.51448699797596831e+01   -1.09856860556885803e+01    5.42679414081181733e-06    2.03317240318261080e-06    8.30821960357816138e-07
2045-05-08T01:30:27.174333    -1.38739711562552482e+08   -5.41104788441097513e+07   -2.21630248727101535e+07    1.15440506723628484e+01   -2.49946201065212144e+01   -1.09242160664554930e+01    5.39510511326945096e-06    2.10411423647648385e-06    8.61818214304960823e-07
